NORAD_CAT_ID,OBJECT_NAME,OBJECT_TYPE,EPOCH,MEAN_MOTION,ECCENTRICITY,INCLINATION,RA_OF_ASC_NODE,ARG_OF_PERICENTER,MEAN_ANOMALY,BSTAR,MEAN_MOTION_DOT,MEAN_MOTION_DDOT,TLE_LINE0,TLE_LINE1,TLE_LINE2,SEMIMAJOR_AXIS,PERIOD,APOGEE,PERIGEE,DECAYED
55294.0,STARLINK-5286,PAYLOAD,2023-10-30 12:25:43,14.9832393,0.0002668,70.002,55.6537,249.2241,110.8632,0.00021893,2.52e-05,0.0,0 STARLINK-5286,1 55294U 23010AB  23303.51786662  .00002520  00000-0  21893-3 0  9998,2 55294  70.0020  55.6537 0002668 249.2241 110.8632 14.98323930 43485,6950.212,96.107,573.931,570.222,0.0
55294.0,STARLINK-5286,PAYLOAD,2023-10-30 14:01:50,14.98340941,0.0002271,70.0019,55.4855,259.0509,101.0395,0.00022039,2.538e-05,0.0,0 STARLINK-5286,1 55294U 23010AB  23303.58461774  .00002538  00000-0  22039-3 0  9991,2 55294  70.0019  55.4855 0002271 259.0509 101.0395 14.98340941 43490,6950.159,96.106,573.602,570.446,0.0
55294.0,STARLINK-5286,PAYLOAD,2023-10-31 12:27:45,14.98325845,0.000251,70.0023,53.1295,259.0607,101.0269,-5.3485e-06,-1.57e-06,0.0,0 STARLINK-5286,1 55294U 23010AB  23304.51927394 -.00000157  00000-0 -53485-5 0  9998,2 55294  70.0023  53.1295 0002510 259.0607 101.0269 14.98325845 43635,6950.206,96.107,573.815,570.326,0.0
55294.0,STARLINK-5286,PAYLOAD,2023-10-31 14:03:50,14.9836194,0.00027,70.0021,52.9611,265.6069,94.4782,0.00026236,3.041e-05,0.0,0 STARLINK-5286,1 55294U 23010AB  23304.58600561  .00003041  00000-0  26236-3 0  9994,2 55294  70.0021  52.9611 0002700 265.6069  94.4782 14.98361940 43943,6950.094,96.105,573.836,570.083,0.0
55294.0,STARLINK-5286,PAYLOAD,2023-10-31 17:16:08,14.98337547,0.0002647,70.0014,52.6243,263.7407,96.3451,4.2838e-05,4.18e-06,0.0,0 STARLINK-5286,1 55294U 23010AB  23304.71954496  .00000418  00000-0  42838-4 0  9990,2 55294  70.0014  52.6243 0002647 263.7407  96.3451 14.98337547 43667,6950.17,96.107,573.874,570.195,0.0
55294.0,STARLINK-5286,PAYLOAD,2023-11-01 12:29:45,14.98325621,0.0002575,70.0015,50.6046,268.6317,91.4547,0.00015861,1.8e-05,0.0,0 STARLINK-5286,1 55294U 23010AB  23305.52066942  .00001800  00000-0  15861-3 0  9991,2 55294  70.0015  50.6046 0002575 268.6317  91.4547 14.98325621 43786,6950.206,96.107,573.861,570.282,0.0
55294.0,STARLINK-5286,PAYLOAD,2023-11-01 14:05:52,14.98361938,0.0002398,70.0018,50.4363,261.7967,98.292,-4.8544e-05,-6.73e-06,0.0,0 STARLINK-5286,1 55294U 23010AB  23305.58741185 -.00000673  00000-0 -48544-4 0  9990,2 55294  70.0018  50.4363 0002398 261.7967  98.2920 14.98361938 44093,6950.094,96.105,573.626,570.292,0.0
55294.0,STARLINK-5286,PAYLOAD,2023-11-01 17:18:09,14.98333637,0.0002672,70.0014,50.0995,265.8684,94.2169,0.00019902,2.283e-05,0.0,0 STARLINK-5286,1 55294U 23010AB  23305.72094252  .00002283  00000-0  19902-3 0  9994,2 55294  70.0014  50.0995 0002672 265.8684  94.2169 14.98333637 43817,6950.182,96.107,573.904,570.19,0.0
55294.0,STARLINK-5286,PAYLOAD,2023-11-02 12:31:46,14.98330463,0.0002461,70.0023,48.0811,265.3302,94.7576,1.0231e-06,-8.1e-07,0.0,0 STARLINK-5286,1 55294U 23010AB  23306.52207010 -.00000081  00000-0  10231-5 0  9994,2 55294  70.0023  48.0811 0002461 265.3302  94.7576 14.98330463 43933,6950.191,96.107,573.767,570.346,0.0
55294.0,STARLINK-5286,PAYLOAD,2023-11-02 14:07:54,14.9832806,0.0002362,70.0024,47.9135,257.5422,102.5473,3.4794e-05,3.22e-06,0.0,0 STARLINK-5286,1 55294U 23010AB  23306.58883051  .00000322  00000-0  34794-4 0  9991,2 55294  70.0024  47.9135 0002362 257.5422 102.5473 14.98328060 44246,6950.199,96.107,573.706,570.422,0.0
55294.0,STARLINK-5286,PAYLOAD,2023-11-02 17:20:11,14.98328658,0.0002298,70.0023,47.5763,260.2615,99.8284,3.8952e-05,3.72e-06,0.0,0 STARLINK-5286,1 55294U 23010AB  23306.72235023  .00000372  00000-0  38952-4 0  9992,2 55294  70.0023  47.5763 0002298 260.2615  99.8284 14.98328658 44264,6950.197,96.107,573.659,570.465,0.0
55294.0,STARLINK-5286,PAYLOAD,2023-11-03 14:09:55,14.98331185,0.0002654,70.0011,45.3869,262.4192,97.6666,-7.7387e-06,-1.85e-06,0.0,0 STARLINK-5286,1 55294U 23010AB  23307.59022837 -.00000185  00000-0 -77387-5 0  9995,2 55294  70.0011  45.3869 0002654 262.4192  97.6666 14.98331185 44397,6950.189,96.107,573.899,570.21,0.0
55294.0,STARLINK-5286,PAYLOAD,2023-11-03 15:46:03,14.98331909,0.0002508,70.002,45.2199,262.8733,97.2141,-5.1128e-06,-1.54e-06,0.0,0 STARLINK-5286,1 55294U 23010AB  23307.65698835 -.00000154  00000-0 -51128-5 0  9990,2 55294  70.0020  45.2199 0002508 262.8733  97.2141 14.98331909 44102,6950.187,96.107,573.795,570.309,0.0
55294.0,STARLINK-5286,PAYLOAD,2023-11-03 23:46:43,14.98345552,0.0002698,70.0016,44.3785,269.7632,90.3218,-0.00025528,-3.139e-05,0.0,0 STARLINK-5286,1 55294U 23010AB  23307.99078423 -.00003139  00000-0 -25528-3 0  9991,2 55294  70.0016  44.3785 0002698 269.7632  90.3218 14.98345552 44155,6950.145,96.106,573.885,570.135,0.0
55294.0,STARLINK-5286,PAYLOAD,2023-11-04 10:59:40,14.98326226,0.0002779,70.0015,43.2001,270.4732,89.6109,4.0254e-06,-4.5e-07,0.0,0 STARLINK-5286,1 55294U 23010AB  23308.45811152 -.00000045  00000-0  40254-5 0  9994,2 55294  70.0015  43.2001 0002779 270.4732  89.6109 14.98326226 44228,6950.205,96.107,574.001,570.138,0.0
55294.0,STARLINK-5286,PAYLOAD,2023-11-04 14:11:56,14.98329962,0.0002869,70.0011,42.8637,268.7685,91.3145,1.0602e-05,3.4e-07,0.0,0 STARLINK-5286,1 55294U 23010AB  23308.59162889  .00000034  00000-0  10602-4 0  9995,2 55294  70.0011  42.8637 0002869 268.7685  91.3145 14.98329962 44546,6950.193,96.107,574.052,570.064,0.0
55294.0,STARLINK-5286,PAYLOAD,2023-11-04 15:48:04,14.9832967,0.0002678,70.0015,42.6956,266.3012,93.7841,2.7573e-05,2.36e-06,0.0,0 STARLINK-5286,1 55294U 23010AB  23308.65838877  .00000236  00000-0  27573-4 0  9998,2 55294  70.0015  42.6956 0002678 266.3012  93.7841 14.98329670 44554,6950.194,96.107,573.92,570.198,0.0
55294.0,STARLINK-5286,PAYLOAD,2023-11-05 12:37:49,14.98336961,0.0003095,70.001,40.5057,270.7686,89.3118,0.00012383,1.385e-05,0.0,0 STARLINK-5286,1 55294U 23010AB  23309.52626224  .00001385  00000-0  12383-3 0  9994,2 55294  70.0010  40.5057 0003095 270.7686  89.3118 14.98336961 44388,6950.171,96.107,574.187,569.885,0.0
55294.0,STARLINK-5286,PAYLOAD,2023-11-05 14:13:57,14.98335585,0.0002987,70.001,40.3375,270.142,89.9397,9.9986e-05,1.1e-05,0.0,0 STARLINK-5286,1 55294U 23010AB  23309.59302333  .00001100  00000-0  99986-4 0  9993,2 55294  70.0010  40.3375 0002987 270.1420  89.9397 14.98335585 44698,6950.176,96.107,574.117,569.965,0.0
55294.0,STARLINK-5286,PAYLOAD,2023-11-05 15:50:04,14.9834236,0.0003019,70.0013,40.1694,269.5845,90.4968,0.00017753,2.027e-05,0.0,0 STARLINK-5286,1 55294U 23010AB  23309.65977683  .00002027  00000-0  17753-3 0  9996,2 55294  70.0013  40.1694 0003019 269.5845  90.4968 14.98342360 44705,6950.155,96.106,574.118,569.921,0.0
55294.0,STARLINK-5286,PAYLOAD,2023-11-06 12:39:48,14.98352486,0.0003191,70.0009,37.9824,268.1853,91.8941,0.00025132,2.909e-05,0.0,0 STARLINK-5286,1 55294U 23010AB  23310.52764311  .00002909  00000-0  25132-3 0  9995,2 55294  70.0009  37.9824 0003191 268.1853  91.8941 14.98352486 44531,6950.123,96.106,574.206,569.771,0.0
55294.0,STARLINK-5286,PAYLOAD,2023-11-06 14:15:56,14.9835355,0.0003064,70.0009,37.814,267.8856,92.1952,0.00025935,3.005e-05,0.0,0 STARLINK-5286,1 55294U 23010AB  23310.59440151  .00003005  00000-0  25935-3 0  9994,2 55294  70.0009  37.8140 0003064 267.8856  92.1952 14.98353550 44842,6950.12,96.105,574.115,569.856,0.0
55294.0,STARLINK-5286,PAYLOAD,2023-11-06 15:52:04,14.98355092,0.0003016,70.0012,37.6462,267.1833,92.898,0.00027251,3.162e-05,0.0,0 STARLINK-5286,1 55294U 23010AB  23310.66115925  .00003162  00000-0  27251-3 0  9997,2 55294  70.0012  37.6462 0003016 267.1833  92.8980 14.98355092 44858,6950.115,96.105,574.076,569.884,0.0
55294.0,STARLINK-5286,PAYLOAD,2023-11-07 04:41:12,14.98303219,0.0003584,70.0007,36.2972,264.1221,95.953,-0.00027807,-3.407e-05,0.0,0 STARLINK-5286,1 55294U 23010AB  23311.19528720 -.00003407  00000-0 -27807-3 0  9998,2 55294  70.0007  36.2972 0003584 264.1221  95.9530 14.98303219 44636,6950.276,96.109,574.632,569.65,0.0
55294.0,STARLINK-5286,PAYLOAD,2023-11-07 11:05:46,14.98294503,0.0003215,70.0011,35.6248,265.3351,94.7441,-0.00035296,-4.298e-05,0.0,0 STARLINK-5286,1 55294U 23010AB  23311.46233914 -.00004298  00000-0 -35296-3 0  9996,2 55294  70.0011  35.6248 0003215 265.3351  94.7441 14.98294503 44675,6950.303,96.109,574.402,569.933,0.0
55294.0,STARLINK-5286,PAYLOAD,2023-11-07 14:18:02,14.98295738,0.0003182,70.0014,35.2886,262.8612,97.2185,-0.00032474,-3.962e-05,0.0,0 STARLINK-5286,1 55294U 23010AB  23311.59585978 -.00003962  00000-0 -32474-3 0  9992,2 55294  70.0014  35.2886 0003182 262.8612  97.2185 14.98295738 44996,6950.299,96.109,574.375,569.952,0.0
55294.0,STARLINK-5286,PAYLOAD,2023-11-08 11:07:44,14.98335067,0.0003113,70.0019,33.1011,259.4502,100.6306,-4.3975e-05,-6.18e-06,0.0,0 STARLINK-5286,1 55294U 23010AB  23312.46371396 -.00000618  00000-0 -43975-4 0  9990,2 55294  70.0019  33.1011 0003113 259.4502 100.6306 14.98335067 44828,6950.177,96.107,574.206,569.879,0.0
55294.0,STARLINK-5286,PAYLOAD,2023-11-08 14:20:01,14.98331559,0.0002853,70.0029,32.7648,256.7755,103.3086,-5.934e-05,-8.01e-06,0.0,0 STARLINK-5286,1 55294U 23010AB  23312.59723683 -.00000801  00000-0 -59340-4 0  9991,2 55294  70.0029  32.7648 0002853 256.7755 103.3086 14.98331559 45143,6950.188,96.107,574.036,570.07,0.0
55294.0,STARLINK-5286,PAYLOAD,2023-11-08 22:20:40,14.98351493,0.0003646,70.0029,31.9271,249.6051,110.4716,-0.00019634,-2.436e-05,0.0,0 STARLINK-5286,1 55294U 23010AB  23312.93102429 -.00002436  00000-0 -19634-3 0  9995,2 55294  70.0029  31.9271 0003646 249.6051 110.4716 14.98351493 45190,6950.126,96.106,574.525,569.457,0.0
55294.0,STARLINK-5286,PAYLOAD,2023-11-09 11:09:45,14.98317765,0.0002892,70.0047,30.58,231.68,128.41,0.00053462,6.29e-05,0.0,0 STARLINK-5286,1 55294U 23010AB  23313.46511147  .00006290  00000-0  53462-3 0  9992,2 55294  70.0047  30.5800 0002892 231.6800 128.4100 14.98317765 44973,6950.231,96.108,574.106,570.086,0.0
